IRIDIUM 106             
1 41917U 17003A   26183.72363705  .00000049  00000+0  10257-4 0  9997
2 41917  86.3954  82.0612 0002063  93.3455 266.7977 14.34217796495431
IRIDIUM 103             
1 41918U 17003B   26183.71095137  .00000065  00000+0  16240-4 0  9994
2 41918  86.3954  81.9662 0002094  79.2884 280.8547 14.34218035495457
IRIDIUM 109             
1 41919U 17003C   26183.71729433  .00000081  00000+0  21794-4 0  9996
2 41919  86.3956  82.0234 0002163  82.9921 277.1521 14.34218044495425
IRIDIUM 102             
1 41920U 17003D   26183.82511856  .00000072  00000+0  18581-4 0  9998
2 41920  86.3954  81.9015 0002298  85.5287 274.6171 14.34217900495527
IRIDIUM 105             
1 41921U 17003E   26183.57441078  .00000037  00000+0  60584-5 0  9991
2 41921  86.3950  50.4357 0002338  79.0621 281.0838 14.34217933497349
IRIDIUM 104             
1 41922U 17003F   26183.41919007  .00000270  00000+0  89450-4 0  9998
2 41922  86.3955  82.1137 0002250  77.1030 283.0417 14.34217734495453
IRIDIUM 114             
1 41923U 17003G   26183.70460944  .00000184  00000+0  58553-4 0  9996
2 41923  86.3954  81.9776 0002183  80.3167 279.8275 14.34218516495477
IRIDIUM 108             
1 41924U 17003H   26183.87243324  .00000155  00000+0  48325-4 0  9990
2 41924  86.3945  50.2000 0002280  85.4688 274.6768 14.34217311497350
IRIDIUM 112             
1 41925U 17003J   26183.69192368  .00000138  00000+0  42215-4 0  9995
2 41925  86.3949  81.8242 0002266  82.5453 277.6000 14.34217513495494
IRIDIUM 111             
1 41926U 17003K   26183.81877397  .00000066  00000+0  16512-4 0  9993
2 41926  86.3956  81.8422 0002075  82.5913 277.5519 14.34216972495494
IRIDIUM 113             
1 42803U 17039A   26183.65920269  .00000278  00000+0  92164-4 0  9998
2 42803  86.3986 315.7110 0002185  90.7418 269.4028 14.34219033473401
IRIDIUM 123             
1 42804U 17039B   26183.84021796  .00000079  00000+0  21181-4 0  9997
2 42804  86.3981 347.0928 0001979  93.1765 266.9657 14.34218030472195
IRIDIUM 120             
1 42805U 17039C   26183.79239587  .00000314  00000+0  10517-3 0  9993
2 42805  86.3975 315.4359 0002219  99.0597 261.0850 14.34219705473419
IRIDIUM 115             
1 42806U 17039D   26183.64867825  .00000383  00000+0  10781-3 0  9999
2 42806  86.4506 315.6259 0002270  95.9628 264.1831 14.43282168476496
IRIDIUM 118             
1 42807U 17039E   26183.73239517  .00000051  00000+0  11198-4 0  9997
2 42807  86.3979 347.1358 0002202  89.8058 270.3390 14.34217859472179
IRIDIUM 117             
1 42808U 17039F   26183.82119118  .00000066  00000+0  16529-4 0  9991
2 42808  86.3979 347.0562 0002084  91.1459 268.9976 14.34217895472213
IRIDIUM 126             
1 42809U 17039G   26183.84656155  .00000074  00000+0  19205-4 0  9994
2 42809  86.3981 347.0970 0002111  88.0531 272.0907 14.34217950472196
IRIDIUM 124             
1 42810U 17039H   26183.51316708  .00000625  00000+0  17969-3 0  9993
2 42810  86.4490 283.9511 0002224  94.1528 265.9927 14.43280756477329
IRIDIUM 128             
1 42811U 17039J   26183.48845637  .00000251  00000+0  82441-4 0  9991
2 42811  86.3962  18.7515 0002137  92.0264 268.1176 14.34219121472175
IRIDIUM 121             
1 42812U 17039K   26183.72605249  .00000021  00000+0  45338-6 0  9993
2 42812  86.3975 347.1753 0002112  92.9054 267.2384 14.34217604472054
IRIDIUM 133             
1 42955U 17061A   26183.79924436  .00000019  00000+0 -20199-6 0  9991
2 42955  86.3961  18.7395 0002149  89.7431 270.4011 14.34217682457011
IRIDIUM 100             
1 42956U 17061B   26183.79290179  .00000030  00000+0  35094-5 0  9993
2 42956  86.3960  18.6604 0002182  89.1072 271.0374 14.34217706457011
IRIDIUM 122             
1 42957U 17061C   26183.83095691  .00000012  00000+0 -28702-5 0  9990
2 42957  86.3959  18.6449 0002013  87.4818 272.6608 14.34217518457028
IRIDIUM 129             
1 42958U 17061D   26183.78655956  .00000024  00000+0  14415-5 0  9999
2 42958  86.3961  18.7305 0002277  83.2164 276.9291 14.34217589457038
IRIDIUM 119             
1 42959U 17061E   26183.82461348  .00000110  00000+0  32190-4 0  9990
2 42959  86.3963  18.7106 0002123  86.3437 273.8002 14.34217650457054
IRIDIUM 107             
1 42960U 17061F   26183.49479801  .00000249  00000+0  81947-4 0  9995
2 42960  86.3963  18.8698 0001955  91.2907 268.8512 14.34217633457019
IRIDIUM 132             
1 42961U 17061G   26183.78021638  .00000019  00000+0 -20481-6 0  9993
2 42961  86.3959  18.7297 0002009  87.4293 272.7132 14.34217617457053
IRIDIUM 136             
1 42962U 17061H   26183.81192932  .00000213  00000+0  69149-4 0  9991
2 42962  86.3965  18.7229 0002252  88.8429 271.3024 14.34218702457075
IRIDIUM 139             
1 42963U 17061J   26183.81827200  .00000018  00000+0 -47598-6 0  9995
2 42963  86.3965  18.7828 0002187  91.0521 269.0925 14.34217665457089
IRIDIUM 125             
1 42964U 17061K   26183.80559784  .00000250  00000+0  82319-4 0  9999
2 42964  86.3965  18.8495 0001757  78.8586 281.2807 14.34220476457097
IRIDIUM 135             
1 43070U 17083A   26183.84948135  .00000068  00000+0  17321-4 0  9996
2 43070  86.3979 315.4671 0002183  92.7354 267.4092 14.34217918446395
