OBJECT_NAME,OBJECT_ID,EPOCH,MEAN_MOTION,ECCENTRICITY,INCLINATION,RA_OF_ASC_NODE,ARG_OF_PERICENTER,MEAN_ANOMALY,EPHEMERIS_TYPE,CLASSIFICATION_TYPE,NORAD_CAT_ID,ELEMENT_SET_NO,REV_AT_EPOCH,BSTAR,MEAN_MOTION_DOT,MEAN_MOTION_DDOT
IRIDIUM 106,2017-003A,2026-07-02T17:22:02.241120,14.34217796,.0002063,86.3954,82.0612,93.3455,266.7977,0,U,41917,999,49543,.10257E-4,.49E-6,0
IRIDIUM 103,2017-003B,2026-07-02T17:03:46.198368,14.34218035,.0002094,86.3954,81.9662,79.2884,280.8547,0,U,41918,999,49545,.1624E-4,.65E-6,0
IRIDIUM 109,2017-003C,2026-07-02T17:12:54.230112,14.34218044,.0002163,86.3956,82.0234,82.9921,277.1521,0,U,41919,999,49542,.21794E-4,.81E-6,0
IRIDIUM 102,2017-003D,2026-07-02T19:48:10.243584,14.34217900,.0002298,86.3954,81.9015,85.5287,274.6171,0,U,41920,999,49552,.18581E-4,.72E-6,0
IRIDIUM 105,2017-003E,2026-07-02T13:47:09.091392,14.34217933,.0002338,86.3950,50.4357,79.0621,281.0838,0,U,41921,999,49734,.60584E-5,.37E-6,0
IRIDIUM 104,2017-003F,2026-07-02T10:03:38.022048,14.34217734,.000225,86.3955,82.1137,77.1030,283.0417,0,U,41922,999,49545,.8945E-4,.27E-5,0
IRIDIUM 114,2017-003G,2026-07-02T16:54:38.255616,14.34218516,.0002183,86.3954,81.9776,80.3167,279.8275,0,U,41923,999,49547,.58553E-4,.184E-5,0
IRIDIUM 108,2017-003H,2026-07-02T20:56:18.231936,14.34217311,.000228,86.3945,50.2000,85.4688,274.6768,0,U,41924,999,49735,.48325E-4,.155E-5,0
IRIDIUM 112,2017-003J,2026-07-02T16:36:22.205952,14.34217513,.0002266,86.3949,81.8242,82.5453,277.6000,0,U,41925,999,49549,.42215E-4,.138E-5,0
IRIDIUM 111,2017-003K,2026-07-02T19:39:02.071008,14.34216972,.0002075,86.3956,81.8422,82.5913,277.5519,0,U,41926,999,49549,.16512E-4,.66E-6,0
IRIDIUM 113,2017-039A,2026-07-02T15:49:15.112416,14.34219033,.0002185,86.3986,315.7110,90.7418,269.4028,0,U,42803,999,47340,.92164E-4,.278E-5,0
IRIDIUM 123,2017-039B,2026-07-02T20:09:54.831744,14.34218030,.0001979,86.3981,347.0928,93.1765,266.9657,0,U,42804,999,47219,.21181E-4,.79E-6,0
IRIDIUM 120,2017-039C,2026-07-02T19:01:03.003168,14.34219705,.0002219,86.3975,315.4359,99.0597,261.0850,0,U,42805,999,47341,.10517E-3,.314E-5,0
IRIDIUM 115,2017-039D,2026-07-02T15:34:05.800800,14.43282168,.000227,86.4506,315.6259,95.9628,264.1831,0,U,42806,999,47649,.10781E-3,.383E-5,0
IRIDIUM 118,2017-039E,2026-07-02T17:34:38.942688,14.34217859,.0002202,86.3979,347.1358,89.8058,270.3390,0,U,42807,999,47217,.11198E-4,.51E-6,0
IRIDIUM 117,2017-039F,2026-07-02T19:42:30.917952,14.34217895,.0002084,86.3979,347.0562,91.1459,268.9976,0,U,42808,999,47221,.16529E-4,.66E-6,0
IRIDIUM 126,2017-039G,2026-07-02T20:19:02.917920,14.34217950,.0002111,86.3981,347.0970,88.0531,272.0907,0,U,42809,999,47219,.19205E-4,.74E-6,0
IRIDIUM 124,2017-039H,2026-07-02T12:18:57.635712,14.43280756,.0002224,86.4490,283.9511,94.1528,265.9927,0,U,42810,999,47732,.17969E-3,.625E-5,0
IRIDIUM 128,2017-039J,2026-07-02T11:43:22.630368,14.34219121,.0002137,86.3962,18.7515,92.0264,268.1176,0,U,42811,999,47217,.82441E-4,.251E-5,0
IRIDIUM 121,2017-039K,2026-07-02T17:25:30.935136,14.34217604,.0002112,86.3975,347.1753,92.9054,267.2384,0,U,42812,999,47205,.45338E-6,.21E-6,0
IRIDIUM 133,2017-061A,2026-07-02T19:10:54.712704,14.34217682,.0002149,86.3961,18.7395,89.7431,270.4011,0,U,42955,999,45701,-.20199E-6,.19E-6,0
IRIDIUM 100,2017-061B,2026-07-02T19:01:46.714656,14.34217706,.0002182,86.3960,18.6604,89.1072,271.0374,0,U,42956,999,45701,.35094E-5,.3E-6,0
IRIDIUM 122,2017-061C,2026-07-02T19:56:34.677024,14.34217518,.0002013,86.3959,18.6449,87.4818,272.6608,0,U,42957,999,45702,-.28702E-5,.12E-6,0
IRIDIUM 129,2017-061D,2026-07-02T18:52:38.745984,14.34217589,.0002277,86.3961,18.7305,83.2164,276.9291,0,U,42958,999,45703,.14415E-5,.24E-6,0
IRIDIUM 119,2017-061E,2026-07-02T19:47:26.604672,14.34217650,.0002123,86.3963,18.7106,86.3437,273.8002,0,U,42959,999,45705,.3219E-4,.11E-5,0
IRIDIUM 107,2017-061F,2026-07-02T11:52:30.548064,14.34217633,.0001955,86.3963,18.8698,91.2907,268.8512,0,U,42960,999,45701,.81947E-4,.249E-5,0
IRIDIUM 132,2017-061G,2026-07-02T18:43:30.695232,14.34217617,.0002009,86.3959,18.7297,87.4293,272.7132,0,U,42961,999,45705,-.20481E-6,.19E-6,0
IRIDIUM 136,2017-061H,2026-07-02T19:29:10.693248,14.34218702,.0002252,86.3965,18.7229,88.8429,271.3024,0,U,42962,999,45707,.69149E-4,.213E-5,0
IRIDIUM 139,2017-061J,2026-07-02T19:38:18.700800,14.34217665,.0002187,86.3965,18.7828,91.0521,269.0925,0,U,42963,999,45708,-.47598E-6,.18E-6,0
IRIDIUM 125,2017-061K,2026-07-02T19:20:03.653376,14.34220476,.0001757,86.3965,18.8495,78.8586,281.2807,0,U,42964,999,45709,.82319E-4,.25E-5,0
IRIDIUM 135,2017-083A,2026-07-02T20:23:15.188640,14.34217918,.0002183,86.3979,315.4671,92.7354,267.4092,0,U,43070,999,44639,.17321E-4,.68E-6,0
